ONEWEB-0629             
1 55170U 23004AG  25315.25263185  .00000064  00000+0  13180-3 0  9990
2 55170  87.9128  49.2153 0001546 112.3479 247.7816 13.17649654138881
ONEWEB-0631             
1 55171U 23004AH  25315.25969996  .00000071  00000+0  14744-3 0  9999
2 55171  87.9221  18.7158 0001935  82.9424 277.1928 13.18688052140954
ONEWEB-0709             
1 55172U 23004AJ  25315.30077506  .00000641  00000+0  17713-2 0  9994
2 55172  87.8856  64.4770 0002378  86.9295 273.2105 13.11416194137317
ONEWEB-0710             
1 55173U 23004AK  25315.26696987  .00000050  00000+0  95690-4 0  9996
2 55173  87.9130  49.2066 0001510  98.7896 261.3406 13.17651513138885
ONEWEB-0711             
1 55174U 23004AL  25315.27193670 -.00000143  00000+0 -43855-3 0  9999
2 55174  87.8865  64.4539 0000878  89.0982 271.0247 13.11418148137271
ONEWEB-0713             
1 55175U 23004AM  25315.29058992  .00000487  00000+0  13380-2 0  9997
2 55175  87.8862  64.4546 0001498  98.3641 261.7657 13.11419631137269
ONEWEB-0715             
1 55176U 23004AN  25315.28550654  .00000405  00000+0  11069-2 0  9991
2 55176  87.8860  64.4552 0001974  80.1154 280.0196 13.11420386137308
ONEWEB-0716             
1 55177U 23004AP  25315.26022140  .00000034  00000+0  55230-4 0  9992
2 55177  87.9132  49.2077 0001835 107.6059 252.5273 13.17650719138885
ONEWEB-0717             
1 55178U 23004AQ  25315.24334285  .00000048  00000+0  89609-4 0  9999
2 55178  87.9138  49.1793 0001123  82.3014 277.8246 13.17650851138939
ONEWEB-0719             
1 55179U 23004AR  25315.25346385  .00000130  00000+0  30126-3 0  9996
2 55179  87.9139  49.1601 0001692 109.6801 250.4513 13.17651598138884
ONEWEB-0530             
1 55796U 23029A   25315.28969263  .00000088  00000+0  18419-3 0  9990
2 55796  87.9179 317.9417 0001311  87.8975 272.2308 13.20771811132389
ONEWEB-0534             
1 55797U 23029B   25315.04979924  .00000085  00000+0  17717-3 0  9997
2 55797  87.9174 317.9907 0001894  94.7165 265.4185 13.20771638132354
ONEWEB-0556             
1 55798U 23029C   25315.28337830  .00000225  00000+0  52124-3 0  9995
2 55798  87.9181 317.9431 0001586 114.8651 245.2648 13.20771868132385
ONEWEB-0562             
1 55799U 23029D   25315.27073145  .00000241  00000+0  55980-3 0  9992
2 55799  87.9178 317.9292 0001034 105.7682 254.3565 13.20774460132388
ONEWEB-0563             
1 55800U 23029E   25315.26444142  .00000163  00000+0  36792-3 0  9996
2 55800  87.9182 317.9565 0002019  98.5083 261.6279 13.20771616132379
ONEWEB-0564             
1 55801U 23029F   25315.03085652 -.00000132  00000+0 -35770-3 0  9992
2 55801  87.9168 317.9807 0001358  92.1979 267.9310 13.20772019132353
ONEWEB-0638             
1 55802U 23029G   25315.31561469 -.00000081  00000+0 -25331-3 0  9994
2 55802  87.8987 333.1765 0001598 107.5488 252.5816 13.14502029130777
