[{"OBJECT_NAME":"ONEWEB-0629","OBJECT_ID":"2023-004AG","EPOCH":"2025-11-11T06:03:47.391840","MEAN_MOTION":13.17649654,"ECCENTRICITY":0.00015467,"INCLINATION":87.9128,"RA_OF_ASC_NODE":49.2153,"ARG_OF_PERICENTER":112.3479,"MEAN_ANOMALY":247.7816,"EPHEMERIS_TYPE":0,"CLASSIFICATION_TYPE":"U","NORAD_CAT_ID":55170,"ELEMENT_SET_NO":999,"REV_AT_EPOCH":13888,"BSTAR":0.00013179818,"MEAN_MOTION_DOT":6.4e-7,"MEAN_MOTION_DDOT":0},{"OBJECT_NAME":"ONEWEB-0631","OBJECT_ID":"2023-004AH","EPOCH":"2025-11-11T06:13:58.076544","MEAN_MOTION":13.18688052,"ECCENTRICITY":0.00019359,"INCLINATION":87.9221,"RA_OF_ASC_NODE":18.7158,"ARG_OF_PERICENTER":82.9424,"MEAN_ANOMALY":277.1928,"EPHEMERIS_TYPE":0,"CLASSIFICATION_TYPE":"U","NORAD_CAT_ID":55171,"ELEMENT_SET_NO":999,"REV_AT_EPOCH":14095,"BSTAR":0.00014743583,"MEAN_MOTION_DOT":7.1e-7,"MEAN_MOTION_DDOT":0},{"OBJECT_NAME":"ONEWEB-0709","OBJECT_ID":"2023-004AJ","EPOCH":"2025-11-11T07:13:06.965184","MEAN_MOTION":13.11416194,"ECCENTRICITY":0.0002378,"INCLINATION":87.8856,"RA_OF_ASC_NODE":64.477,"ARG_OF_PERICENTER":86.9295,"MEAN_ANOMALY":273.2105,"EPHEMERIS_TYPE":0,"CLASSIFICATION_TYPE":"U","NORAD_CAT_ID":55172,"ELEMENT_SET_NO":999,"REV_AT_EPOCH":13731,"BSTAR":0.0017712633,"MEAN_MOTION_DOT":6.41e-6,"MEAN_MOTION_DDOT":0},{"OBJECT_NAME":"ONEWEB-0710","OBJECT_ID":"2023-004AK","EPOCH":"2025-11-11T06:24:26.196768","MEAN_MOTION":13.17651513,"ECCENTRICITY":0.00015103,"INCLINATION":87.913,"RA_OF_ASC_NODE":49.2066,"ARG_OF_PERICENTER":98.7896,"MEAN_ANOMALY":261.3406,"EPHEMERIS_TYPE":0,"CLASSIFICATION_TYPE":"U","NORAD_CAT_ID":55173,"ELEMENT_SET_NO":999,"REV_AT_EPOCH":13888,"BSTAR":9.5690438e-5,"MEAN_MOTION_DOT":5.0e-7,"MEAN_MOTION_DDOT":0},{"OBJECT_NAME":"ONEWEB-0711","OBJECT_ID":"2023-004AL","EPOCH":"2025-11-11T06:31:35.330880","MEAN_MOTION":13.11418148,"ECCENTRICITY":8.783e-5,"INCLINATION":87.8865,"RA_OF_ASC_NODE":64.4539,"ARG_OF_PERICENTER":89.0982,"MEAN_ANOMALY":271.0247,"EPHEMERIS_TYPE":0,"CLASSIFICATION_TYPE":"U","NORAD_CAT_ID":55174,"ELEMENT_SET_NO":999,"REV_AT_EPOCH":13727,"BSTAR":-0.00043854731,"MEAN_MOTION_DOT":-1.43e-6,"MEAN_MOTION_DDOT":0},{"OBJECT_NAME":"ONEWEB-0713","OBJECT_ID":"2023-004AM","EPOCH":"2025-11-11T06:58:26.969088","MEAN_MOTION":13.11419631,"ECCENTRICITY":0.00014981,"INCLINATION":87.8862,"RA_OF_ASC_NODE":64.4546,"ARG_OF_PERICENTER":98.3641,"MEAN_ANOMALY":261.7657,"EPHEMERIS_TYPE":0,"CLASSIFICATION_TYPE":"U","NORAD_CAT_ID":55175,"ELEMENT_SET_NO":999,"REV_AT_EPOCH":13726,"BSTAR":0.0013379962,"MEAN_MOTION_DOT":4.87e-6,"MEAN_MOTION_DDOT":0},{"OBJECT_NAME":"ONEWEB-0715","OBJECT_ID":"2023-004AN","EPOCH":"2025-11-11T06:51:07.765056","MEAN_MOTION":13.11420386,"ECCENTRICITY":0.0001974,"INCLINATION":87.886,"RA_OF_ASC_NODE":64.4552,"ARG_OF_PERICENTER":80.1154,"MEAN_ANOMALY":280.0196,"EPHEMERIS_TYPE":0,"CLASSIFICATION_TYPE":"U","NORAD_CAT_ID":55176,"ELEMENT_SET_NO":999,"REV_AT_EPOCH":13730,"BSTAR":0.001106867,"MEAN_MOTION_DOT":4.05e-6,"MEAN_MOTION_DDOT":0},{"OBJECT_NAME":"ONEWEB-0716","OBJECT_ID":"2023-004AP","EPOCH":"2025-11-11T06:14:43.128960","MEAN_MOTION":13.17650719,"ECCENTRICITY":0.00018358,"INCLINATION":87.9132,"RA_OF_ASC_NODE":49.2077,"ARG_OF_PERICENTER":107.6059,"MEAN_ANOMALY":252.5273,"EPHEMERIS_TYPE":0,"CLASSIFICATION_TYPE":"U","NORAD_CAT_ID":55177,"ELEMENT_SET_NO":999,"REV_AT_EPOCH":13888,"BSTAR":5.523005e-5,"MEAN_MOTION_DOT":3.4e-7,"MEAN_MOTION_DDOT":0},{"OBJECT_NAME":"ONEWEB-0717","OBJECT_ID":"2023-004AQ","EPOCH":"2025-11-11T05:50:24.822240","MEAN_MOTION":13.17650851,"ECCENTRICITY":0.00011234,"INCLINATION":87.9138,"RA_OF_ASC_NODE":49.1793,"ARG_OF_PERICENTER":82.3014,"MEAN_ANOMALY":277.8246,"EPHEMERIS_TYPE":0,"CLASSIFICATION_TYPE":"U","NORAD_CAT_ID":55178,"ELEMENT_SET_NO":999,"REV_AT_EPOCH":13893,"BSTAR":8.9609496e-5,"MEAN_MOTION_DOT":4.8e-7,"MEAN_MOTION_DDOT":0},{"OBJECT_NAME":"ONEWEB-0719","OBJECT_ID":"2023-004AR","EPOCH":"2025-11-11T06:04:59.276640","MEAN_MOTION":13.17651598,"ECCENTRICITY":0.00016926,"INCLINATION":87.9139,"RA_OF_ASC_NODE":49.1601,"ARG_OF_PERICENTER":109.6801,"MEAN_ANOMALY":250.4513,"EPHEMERIS_TYPE":0,"CLASSIFICATION_TYPE":"U","NORAD_CAT_ID":55179,"ELEMENT_SET_NO":999,"REV_AT_EPOCH":13888,"BSTAR":0.00030126101,"MEAN_MOTION_DOT":1.3e-6,"MEAN_MOTION_DDOT":0},{"OBJECT_NAME":"ONEWEB-0530","OBJECT_ID":"2023-029A","EPOCH":"2025-11-11T06:57:09.443232","MEAN_MOTION":13.20771811,"ECCENTRICITY":0.00013117,"INCLINATION":87.9179,"RA_OF_ASC_NODE":317.9417,"ARG_OF_PERICENTER":87.8975,"MEAN_ANOMALY":272.2308,"EPHEMERIS_TYPE":0,"CLASSIFICATION_TYPE":"U","NORAD_CAT_ID":55796,"ELEMENT_SET_NO":999,"REV_AT_EPOCH":13238,"BSTAR":0.00018418573,"MEAN_MOTION_DOT":8.8e-7,"MEAN_MOTION_DDOT":0},{"OBJECT_NAME":"ONEWEB-0534","OBJECT_ID":"2023-029B","EPOCH":"2025-11-11T01:11:42.654336","MEAN_MOTION":13.20771638,"ECCENTRICITY":0.0001894,"INCLINATION":87.9174,"RA_OF_ASC_NODE":317.9907,"ARG_OF_PERICENTER":94.7165,"MEAN_ANOMALY":265.4185,"EPHEMERIS_TYPE":0,"CLASSIFICATION_TYPE":"U","NORAD_CAT_ID":55797,"ELEMENT_SET_NO":999,"REV_AT_EPOCH":13235,"BSTAR":0.00017717476,"MEAN_MOTION_DOT":8.5e-7,"MEAN_MOTION_DDOT":0},{"OBJECT_NAME":"ONEWEB-0556","OBJECT_ID":"2023-029C","EPOCH":"2025-11-11T06:48:03.885120","MEAN_MOTION":13.20771868,"ECCENTRICITY":0.00015868,"INCLINATION":87.9181,"RA_OF_ASC_NODE":317.9431,"ARG_OF_PERICENTER":114.8651,"MEAN_ANOMALY":245.2648,"EPHEMERIS_TYPE":0,"CLASSIFICATION_TYPE":"U","NORAD_CAT_ID":55798,"ELEMENT_SET_NO":999,"REV_AT_EPOCH":13238,"BSTAR":0.0005212399,"MEAN_MOTION_DOT":2.25e-6,"MEAN_MOTION_DDOT":0},{"OBJECT_NAME":"ONEWEB-0562","OBJECT_ID":"2023-029D","EPOCH":"2025-11-11T06:29:51.197280","MEAN_MOTION":13.2077446,"ECCENTRICITY":0.00010346,"INCLINATION":87.9178,"RA_OF_ASC_NODE":317.9292,"ARG_OF_PERICENTER":105.7682,"MEAN_ANOMALY":254.3565,"EPHEMERIS_TYPE":0,"CLASSIFICATION_TYPE":"U","NORAD_CAT_ID":55799,"ELEMENT_SET_NO":999,"REV_AT_EPOCH":13238,"BSTAR":0.00055979603,"MEAN_MOTION_DOT":2.41e-6,"MEAN_MOTION_DDOT":0},{"OBJECT_NAME":"ONEWEB-0563","OBJECT_ID":"2023-029E","EPOCH":"2025-11-11T06:20:47.738688","MEAN_MOTION":13.20771616,"ECCENTRICITY":0.00020198,"INCLINATION":87.9182,"RA_OF_ASC_NODE":317.9565,"ARG_OF_PERICENTER":98.5083,"MEAN_ANOMALY":261.6279,"EPHEMERIS_TYPE":0,"CLASSIFICATION_TYPE":"U","NORAD_CAT_ID":55800,"ELEMENT_SET_NO":999,"REV_AT_EPOCH":13237,"BSTAR":0.00036791939,"MEAN_MOTION_DOT":1.63e-6,"MEAN_MOTION_DDOT":0},{"OBJECT_NAME":"ONEWEB-0564","OBJECT_ID":"2023-029F","EPOCH":"2025-11-11T00:44:26.003328","MEAN_MOTION":13.20772019,"ECCENTRICITY":0.00013583,"INCLINATION":87.9168,"RA_OF_ASC_NODE":317.9807,"ARG_OF_PERICENTER":92.1979,"MEAN_ANOMALY":267.931,"EPHEMERIS_TYPE":0,"CLASSIFICATION_TYPE":"U","NORAD_CAT_ID":55801,"ELEMENT_SET_NO":999,"REV_AT_EPOCH":13235,"BSTAR":-0.0003577012,"MEAN_MOTION_DOT":-1.32e-6,"MEAN_MOTION_DDOT":0},{"OBJECT_NAME":"ONEWEB-0638","OBJECT_ID":"2023-029G","EPOCH":"2025-11-11T07:34:29.109216","MEAN_MOTION":13.14502029,"ECCENTRICITY":0.00015987,"INCLINATION":87.8987,"RA_OF_ASC_NODE":333.1765,"ARG_OF_PERICENTER":107.5488,"MEAN_ANOMALY":252.5816,"EPHEMERIS_TYPE":0,"CLASSIFICATION_TYPE":"U","NORAD_CAT_ID":55802,"ELEMENT_SET_NO":999,"REV_AT_EPOCH":13077,"BSTAR":-0.00025331009,"MEAN_MOTION_DOT":-8.1e-7,"MEAN_MOTION_DDOT":0}]
